CCSDS_OMM_VERS = 2.0
CREATION_DATE  = 
ORIGINATOR     = 

OBJECT_NAME    = UNKNOWN
OBJECT_ID      = 
CENTER_NAME    = EARTH
REF_FRAME      = TEME
TIME_SYSTEM    = UTC
MEAN_ELEMENT_THEORY = SGP/SGP4

EPOCH          = 2026-01-23T08:12:39.711456
MEAN_MOTION    = 13.28192959
ECCENTRICITY   = .008051
INCLINATION    = 101.7474
RA_OF_ASC_NODE = 249.2492
ARG_OF_PERICENTER = 292.2735
MEAN_ANOMALY   = 66.9857

EPHEMERIS_TYPE = 0
CLASSIFICATION_TYPE = U
NORAD_CAT_ID   = 87557
ELEMENT_SET_NO = 999
REV_AT_EPOCH   = 57055
BSTAR          = .1354E-1
MEAN_MOTION_DOT = .6216E-4
MEAN_MOTION_DDOT = 0

CCSDS_OMM_VERS = 2.0
CREATION_DATE  = 
ORIGINATOR     = 

OBJECT_NAME    = UNKNOWN
OBJECT_ID      = 
CENTER_NAME    = EARTH
REF_FRAME      = TEME
TIME_SYSTEM    = UTC
MEAN_ELEMENT_THEORY = SGP/SGP4

EPOCH          = 2026-01-23T15:06:28.931328
MEAN_MOTION    = 12.32162462
ECCENTRICITY   = .0175874
INCLINATION    = 102.0034
RA_OF_ASC_NODE = 85.0011
ARG_OF_PERICENTER = 216.3867
MEAN_ANOMALY   = 298.6831

EPHEMERIS_TYPE = 0
CLASSIFICATION_TYPE = U
NORAD_CAT_ID   = 87561
ELEMENT_SET_NO = 999
REV_AT_EPOCH   = 54759
BSTAR          = .43772E-3
MEAN_MOTION_DOT = .12E-6
MEAN_MOTION_DDOT = 0

CCSDS_OMM_VERS = 2.0
CREATION_DATE  = 
ORIGINATOR     = 

OBJECT_NAME    = UNKNOWN
OBJECT_ID      = 
CENTER_NAME    = EARTH
REF_FRAME      = TEME
TIME_SYSTEM    = UTC
MEAN_ELEMENT_THEORY = SGP/SGP4

EPOCH          = 2026-01-23T10:28:53.428800
MEAN_MOTION    = 14.06102785
ECCENTRICITY   = .0172106
INCLINATION    = 99.9488
RA_OF_ASC_NODE = 24.1263
ARG_OF_PERICENTER = 58.1107
MEAN_ANOMALY   = 303.6675

EPHEMERIS_TYPE = 0
CLASSIFICATION_TYPE = U
NORAD_CAT_ID   = 87565
ELEMENT_SET_NO = 999
REV_AT_EPOCH   = 62229
BSTAR          = .13289E-2
MEAN_MOTION_DOT = .2445E-4
MEAN_MOTION_DDOT = 0

CCSDS_OMM_VERS = 2.0
CREATION_DATE  = 
ORIGINATOR     = 

OBJECT_NAME    = UNKNOWN
OBJECT_ID      = 
CENTER_NAME    = EARTH
REF_FRAME      = TEME
TIME_SYSTEM    = UTC
MEAN_ELEMENT_THEORY = SGP/SGP4

EPOCH          = 2026-01-22T11:29:21.193728
MEAN_MOTION    = 12.68542368
ECCENTRICITY   = .0055704
INCLINATION    = 101.9901
RA_OF_ASC_NODE = 206.4008
ARG_OF_PERICENTER = 173.3854
MEAN_ANOMALY   = 214.7861

EPHEMERIS_TYPE = 0
CLASSIFICATION_TYPE = U
NORAD_CAT_ID   = 87569
ELEMENT_SET_NO = 999
REV_AT_EPOCH   = 56363
BSTAR          = .97106E-4
MEAN_MOTION_DOT = -.29E-6
MEAN_MOTION_DDOT = 0

CCSDS_OMM_VERS = 2.0
CREATION_DATE  = 
ORIGINATOR     = 

OBJECT_NAME    = UNKNOWN
OBJECT_ID      = 
CENTER_NAME    = EARTH
REF_FRAME      = TEME
TIME_SYSTEM    = UTC
MEAN_ELEMENT_THEORY = SGP/SGP4

EPOCH          = 2026-01-21T17:39:28.306656
MEAN_MOTION    = 14.40085622
ECCENTRICITY   = .0019236
INCLINATION    = 74.0240
RA_OF_ASC_NODE = 28.9306
ARG_OF_PERICENTER = 53.2194
MEAN_ANOMALY   = 307.0722

EPHEMERIS_TYPE = 0
CLASSIFICATION_TYPE = U
NORAD_CAT_ID   = 87587
ELEMENT_SET_NO = 999
REV_AT_EPOCH   = 63956
BSTAR          = .15135E-3
MEAN_MOTION_DOT = .452E-5
MEAN_MOTION_DDOT = 0

CCSDS_OMM_VERS = 2.0
CREATION_DATE  = 
ORIGINATOR     = 

OBJECT_NAME    = UNKNOWN
OBJECT_ID      = 
CENTER_NAME    = EARTH
REF_FRAME      = TEME
TIME_SYSTEM    = UTC
MEAN_ELEMENT_THEORY = SGP/SGP4

EPOCH          = 2026-01-15T01:27:12.765024
MEAN_MOTION    = 14.10375418
ECCENTRICITY   = .0027056
INCLINATION    = 98.7840
RA_OF_ASC_NODE = 56.4145
ARG_OF_PERICENTER = 188.1189
MEAN_ANOMALY   = 202.9840

EPHEMERIS_TYPE = 0
CLASSIFICATION_TYPE = U
NORAD_CAT_ID   = 87590
ELEMENT_SET_NO = 999
REV_AT_EPOCH   = 15894
BSTAR          = .2449E-3
MEAN_MOTION_DOT = .393E-5
MEAN_MOTION_DDOT = 0

CCSDS_OMM_VERS = 2.0
CREATION_DATE  = 
ORIGINATOR     = 

OBJECT_NAME    = UNKNOWN
OBJECT_ID      = 
CENTER_NAME    = EARTH
REF_FRAME      = TEME
TIME_SYSTEM    = UTC
MEAN_ELEMENT_THEORY = SGP/SGP4

EPOCH          = 2026-01-19T14:31:44.020704
MEAN_MOTION    = 12.46908685
ECCENTRICITY   = .0626777
INCLINATION    = 66.0359
RA_OF_ASC_NODE = 74.1004
ARG_OF_PERICENTER = 122.8526
MEAN_ANOMALY   = 27.9348

EPHEMERIS_TYPE = 0
CLASSIFICATION_TYPE = U
NORAD_CAT_ID   = 87616
ELEMENT_SET_NO = 999
REV_AT_EPOCH   = 54095
BSTAR          = -.50961E-3
MEAN_MOTION_DOT = -.206E-5
MEAN_MOTION_DDOT = 0

CCSDS_OMM_VERS = 2.0
CREATION_DATE  = 
ORIGINATOR     = 

OBJECT_NAME    = UNKNOWN
OBJECT_ID      = 
CENTER_NAME    = EARTH
REF_FRAME      = TEME
TIME_SYSTEM    = UTC
MEAN_ELEMENT_THEORY = SGP/SGP4

EPOCH          = 2026-01-23T13:43:05.980800
MEAN_MOTION    = 14.70507567
ECCENTRICITY   = .0098327
INCLINATION    = 98.6851
RA_OF_ASC_NODE = 328.6923
ARG_OF_PERICENTER = 116.9505
MEAN_ANOMALY   = 244.1784

EPHEMERIS_TYPE = 0
CLASSIFICATION_TYPE = U
NORAD_CAT_ID   = 87624
ELEMENT_SET_NO = 999
REV_AT_EPOCH   = 58642
BSTAR          = .1201E-2
MEAN_MOTION_DOT = .7799E-4
MEAN_MOTION_DDOT = 0

CCSDS_OMM_VERS = 2.0
CREATION_DATE  = 
ORIGINATOR     = 

OBJECT_NAME    = UNKNOWN
OBJECT_ID      = 
CENTER_NAME    = EARTH
REF_FRAME      = TEME
TIME_SYSTEM    = UTC
MEAN_ELEMENT_THEORY = SGP/SGP4

EPOCH          = 2026-01-19T05:50:34.176768
MEAN_MOTION    = 14.62702813
ECCENTRICITY   = .0031076
INCLINATION    = 100.2686
RA_OF_ASC_NODE = 208.5407
ARG_OF_PERICENTER = 173.1630
MEAN_ANOMALY   = 186.9995

EPHEMERIS_TYPE = 0
CLASSIFICATION_TYPE = U
NORAD_CAT_ID   = 87650
ELEMENT_SET_NO = 999
REV_AT_EPOCH   = 8524
BSTAR          = .24431E-2
MEAN_MOTION_DOT = .12481E-3
MEAN_MOTION_DDOT = 0

CCSDS_OMM_VERS = 2.0
CREATION_DATE  = 
ORIGINATOR     = 

OBJECT_NAME    = UNKNOWN
OBJECT_ID      = 
CENTER_NAME    = EARTH
REF_FRAME      = TEME
TIME_SYSTEM    = UTC
MEAN_ELEMENT_THEORY = SGP/SGP4

EPOCH          = 2026-01-23T02:36:40.449600
MEAN_MOTION    = 14.28070667
ECCENTRICITY   = .0060554
INCLINATION    = 70.8565
RA_OF_ASC_NODE = 277.2785
ARG_OF_PERICENTER = 212.6087
MEAN_ANOMALY   = 147.1297

EPHEMERIS_TYPE = 0
CLASSIFICATION_TYPE = U
NORAD_CAT_ID   = 87672
ELEMENT_SET_NO = 999
REV_AT_EPOCH   = 63036
BSTAR          = .17264E-2
MEAN_MOTION_DOT = .4328E-4
MEAN_MOTION_DDOT = 0

CCSDS_OMM_VERS = 2.0
CREATION_DATE  = 
ORIGINATOR     = 

OBJECT_NAME    = UNKNOWN
OBJECT_ID      = 
CENTER_NAME    = EARTH
REF_FRAME      = TEME
TIME_SYSTEM    = UTC
MEAN_ELEMENT_THEORY = SGP/SGP4

EPOCH          = 2026-01-23T15:43:01.361568
MEAN_MOTION    = 13.71221202
ECCENTRICITY   = .0149957
INCLINATION    = 66.7381
RA_OF_ASC_NODE = 359.3887
ARG_OF_PERICENTER = 134.3028
MEAN_ANOMALY   = 227.0454

EPHEMERIS_TYPE = 0
CLASSIFICATION_TYPE = U
NORAD_CAT_ID   = 87681
ELEMENT_SET_NO = 999
REV_AT_EPOCH   = 60758
BSTAR          = .15037E-2
MEAN_MOTION_DOT = .1388E-4
MEAN_MOTION_DDOT = 0

CCSDS_OMM_VERS = 2.0
CREATION_DATE  = 
ORIGINATOR     = 

OBJECT_NAME    = UNKNOWN
OBJECT_ID      = 
CENTER_NAME    = EARTH
REF_FRAME      = TEME
TIME_SYSTEM    = UTC
MEAN_ELEMENT_THEORY = SGP/SGP4

EPOCH          = 2026-01-23T01:09:01.616832
MEAN_MOTION    = 14.01107858
ECCENTRICITY   = .057918
INCLINATION    = 65.7909
RA_OF_ASC_NODE = 246.5724
ARG_OF_PERICENTER = 26.2587
MEAN_ANOMALY   = 336.6655

EPHEMERIS_TYPE = 0
CLASSIFICATION_TYPE = U
NORAD_CAT_ID   = 87690
ELEMENT_SET_NO = 999
REV_AT_EPOCH   = 61316
BSTAR          = .91602E-3
MEAN_MOTION_DOT = .6151E-4
MEAN_MOTION_DDOT = 0

CCSDS_OMM_VERS = 2.0
CREATION_DATE  = 
ORIGINATOR     = 

OBJECT_NAME    = UNKNOWN
OBJECT_ID      = 
CENTER_NAME    = EARTH
REF_FRAME      = TEME
TIME_SYSTEM    = UTC
MEAN_ELEMENT_THEORY = SGP/SGP4

EPOCH          = 2026-01-22T00:30:09.393984
MEAN_MOTION    = 14.64897765
ECCENTRICITY   = .0104734
INCLINATION    = 98.6731
RA_OF_ASC_NODE = 212.7756
ARG_OF_PERICENTER = 142.6006
MEAN_ANOMALY   = 8.0828

EPHEMERIS_TYPE = 0
CLASSIFICATION_TYPE = U
NORAD_CAT_ID   = 87706
ELEMENT_SET_NO = 999
REV_AT_EPOCH   = 58441
BSTAR          = .17257E-2
MEAN_MOTION_DOT = .9955E-4
MEAN_MOTION_DDOT = 0

CCSDS_OMM_VERS = 2.0
CREATION_DATE  = 
ORIGINATOR     = 

OBJECT_NAME    = UNKNOWN
OBJECT_ID      = 
CENTER_NAME    = EARTH
REF_FRAME      = TEME
TIME_SYSTEM    = UTC
MEAN_ELEMENT_THEORY = SGP/SGP4

EPOCH          = 2026-01-23T18:57:02.638368
MEAN_MOTION    = 15.01886814
ECCENTRICITY   = .0013315
INCLINATION    = 82.8637
RA_OF_ASC_NODE = 217.3584
ARG_OF_PERICENTER = 281.9690
MEAN_ANOMALY   = 78.0043

EPHEMERIS_TYPE = 0
CLASSIFICATION_TYPE = U
NORAD_CAT_ID   = 87725
ELEMENT_SET_NO = 999
REV_AT_EPOCH   = 64022
BSTAR          = .88072E-2
MEAN_MOTION_DOT = .117034E-2
MEAN_MOTION_DDOT = 0

CCSDS_OMM_VERS = 2.0
CREATION_DATE  = 
ORIGINATOR     = 

OBJECT_NAME    = UNKNOWN
OBJECT_ID      = 
CENTER_NAME    = EARTH
REF_FRAME      = TEME
TIME_SYSTEM    = UTC
MEAN_ELEMENT_THEORY = SGP/SGP4

EPOCH          = 2026-01-20T05:50:28.746528
MEAN_MOTION    = 13.74513036
ECCENTRICITY   = .0028818
INCLINATION    = 82.9432
RA_OF_ASC_NODE = 205.6124
ARG_OF_PERICENTER = 256.1036
MEAN_ANOMALY   = 103.6914

EPHEMERIS_TYPE = 0
CLASSIFICATION_TYPE = U
NORAD_CAT_ID   = 87730
ELEMENT_SET_NO = 999
REV_AT_EPOCH   = 59062
BSTAR          = .86633E-4
MEAN_MOTION_DOT = .97E-6
MEAN_MOTION_DDOT = 0

CCSDS_OMM_VERS = 2.0
CREATION_DATE  = 
ORIGINATOR     = 

OBJECT_NAME    = UNKNOWN
OBJECT_ID      = 
CENTER_NAME    = EARTH
REF_FRAME      = TEME
TIME_SYSTEM    = UTC
MEAN_ELEMENT_THEORY = SGP/SGP4

EPOCH          = 2026-01-22T09:13:56.016768
MEAN_MOTION    = 13.72348404
ECCENTRICITY   = .0134048
INCLINATION    = 99.3712
RA_OF_ASC_NODE = 258.2932
ARG_OF_PERICENTER = 83.7845
MEAN_ANOMALY   = 277.8553

EPHEMERIS_TYPE = 0
CLASSIFICATION_TYPE = U
NORAD_CAT_ID   = 87737
ELEMENT_SET_NO = 999
REV_AT_EPOCH   = 60943
BSTAR          = .14022E-3
MEAN_MOTION_DOT = .94E-6
MEAN_MOTION_DDOT = 0

